start=new Date('2022-06-26T00:00:00.000Z').valueOf();
sats=[{"OBJECT_NAME":"STARLINK-3758","CLASSIFICATION_TYPE":"U","MEAN_ANOMALY":"357.1983","APOAPSIS":"440.700","MEAN_MOTION_DDOT":"0.0000000000000","GP_ID":"206858311","ECCENTRICITY":"0.00013750","MEAN_MOTION_DOT":"-0.00720966","SITE":"AFETR","INCLINATION":"53.2176","REF_FRAME":"TEME","MEAN_ELEMENT_THEORY":"SGP4","TLE_LINE1":"1 52297U 22041AN  22176.91667824 -.00720966  00000-0 -17926-1 0  9993","COUNTRY_CODE":"US","SEMIMAJOR_AXIS":"6817.898","OBJECT_ID":"2022-041AN","TLE_LINE2":"2 52297  53.2176  54.5055 0001375  50.6818 357.1983 15.42151431  1306","OBJECT_TYPE":"PAYLOAD","CENTER_NAME":"EARTH","MEAN_MOTION":"15.42151431","ELEMENT_SET_NO":"999","DECAY_DATE":null,"FILE":"3502557","RCS_SIZE":"LARGE","PERIOD":"93.376","LAUNCH_DATE":"2022-04-21","TIME_SYSTEM":"UTC","EPHEMERIS_TYPE":"0","RA_OF_ASC_NODE":"54.5055","BSTAR":"-0.01792600000000","EPOCH":"2022-06-25T22:00:00.999936","NORAD_CAT_ID":"52297","PERIAPSIS":"438.825","ARG_OF_PERICENTER":"50.6818","REV_AT_EPOCH":"130"},{"RCS_SIZE":"LARGE","LAUNCH_DATE":"2022-04-21","PERIOD":"93.304","TIME_SYSTEM":"UTC","EPHEMERIS_TYPE":"0","RA_OF_ASC_NODE":"54.5672","BSTAR":"-0.01722200000000","EPOCH":"2022-06-25T22:00:00.999936","NORAD_CAT_ID":"52298","ARG_OF_PERICENTER":"62.6584","PERIAPSIS":"435.406","REV_AT_EPOCH":"1145","TLE_LINE2":"2 52298  53.2175  54.5672 0001253  62.6584  10.2844 15.43340782 11459","OBJECT_TYPE":"PAYLOAD","CENTER_NAME":"EARTH","MEAN_MOTION":"15.43340782","ELEMENT_SET_NO":"999","DECAY_DATE":null,"FILE":"3502470","MEAN_MOTION_DOT":"-0.00721048","SITE":"AFETR","INCLINATION":"53.2175","REF_FRAME":"TEME","TLE_LINE1":"1 52298U 22041AP  22176.91667824 -.00721048  00000-0 -17222-1 0  9995","MEAN_ELEMENT_THEORY":"SGP4","COUNTRY_CODE":"US","SEMIMAJOR_AXIS":"6814.395","OBJECT_ID":"2022-041AP","OBJECT_NAME":"STARLINK-3760","CLASSIFICATION_TYPE":"U","MEAN_ANOMALY":"10.2844","APOAPSIS":"437.114","MEAN_MOTION_DDOT":"0.0000000000000","GP_ID":"206832124","ECCENTRICITY":"0.00012530"},{"ECCENTRICITY":"0.00013580","GP_ID":"206831615","MEAN_MOTION_DDOT":"0.0000000000000","APOAPSIS":"438.352","MEAN_ANOMALY":"12.3260","CLASSIFICATION_TYPE":"U","OBJECT_NAME":"STARLINK-3759","OBJECT_ID":"2022-041AQ","SEMIMAJOR_AXIS":"6815.562","COUNTRY_CODE":"US","MEAN_ELEMENT_THEORY":"SGP4","TLE_LINE1":"1 52299U 22041AQ  22176.91667824 -.00721062  00000-0 -17455-1 0  9990","REF_FRAME":"TEME","INCLINATION":"53.2175","SITE":"AFETR","MEAN_MOTION_DOT":"-0.00721062","FILE":"3502470","DECAY_DATE":null,"ELEMENT_SET_NO":"999","MEAN_MOTION":"15.42944378","CENTER_NAME":"EARTH","OBJECT_TYPE":"PAYLOAD","TLE_LINE2":"2 52299  53.2175  54.5470 0001358  52.6324  12.3260 15.42944378 11469","PERIAPSIS":"436.501","ARG_OF_PERICENTER":"52.6324","REV_AT_EPOCH":"1146","NORAD_CAT_ID":"52299","EPOCH":"2022-06-25T22:00:00.999936","BSTAR":"-0.01745500000000","EPHEMERIS_TYPE":"0","RA_OF_ASC_NODE":"54.5470","LAUNCH_DATE":"2022-04-21","PERIOD":"93.328","TIME_SYSTEM":"UTC","RCS_SIZE":"LARGE"},{"LAUNCH_DATE":"2022-04-21","PERIOD":"93.280","TIME_SYSTEM":"UTC","RCS_SIZE":"LARGE","BSTAR":"-0.01699000000000","EPOCH":"2022-06-25T22:00:00.999936","NORAD_CAT_ID":"52300","EPHEMERIS_TYPE":"0","RA_OF_ASC_NODE":"54.5873","REV_AT_EPOCH":"130","PERIAPSIS":"434.269","ARG_OF_PERICENTER":"68.3669","OBJECT_TYPE":"PAYLOAD","TLE_LINE2":"2 52300  53.2175  54.5873 0001210  68.3669  12.1908 15.43737178  1300","ELEMENT_SET_NO":"999","CENTER_NAME":"EARTH","MEAN_MOTION":"15.43737178","DECAY_DATE":null,"FILE":"3502557","MEAN_MOTION_DOT":"-0.00720984","INCLINATION":"53.2175","SITE":"AFETR","REF_FRAME":"TEME","OBJECT_ID":"2022-041AR","MEAN_ELEMENT_THEORY":"SGP4","TLE_LINE1":"1 52300U 22041AR  22176.91667824 -.00720984  00000-0 -16990-1 0  9998","COUNTRY_CODE":"US","SEMIMAJOR_AXIS":"6813.228","OBJECT_NAME":"STARLINK-3769","CLASSIFICATION_TYPE":"U","APOAPSIS":"435.918","MEAN_ANOMALY":"12.1908","GP_ID":"206858171","ECCENTRICITY":"0.00012100","MEAN_MOTION_DDOT":"0.0000000000000"},{"FILE":"3502471","DECAY_DATE":null,"ELEMENT_SET_NO":"999","MEAN_MOTION":"15.42746072","CENTER_NAME":"EARTH","OBJECT_TYPE":"PAYLOAD","TLE_LINE2":"2 52301  53.2176  54.5367 0001370  51.0338   9.7937 15.42746072 11452","REV_AT_EPOCH":"1145","PERIAPSIS":"437.077","ARG_OF_PERICENTER":"51.0338","NORAD_CAT_ID":"52301","EPOCH":"2022-06-25T22:00:00.999936","BSTAR":"-0.01757000000000","EPHEMERIS_TYPE":"0","RA_OF_ASC_NODE":"54.5367","LAUNCH_DATE":"2022-04-21","TIME_SYSTEM":"UTC","PERIOD":"93.340","RCS_SIZE":"LARGE","ECCENTRICITY":"0.00013700","GP_ID":"206832128","MEAN_MOTION_DDOT":"0.0000000000000","APOAPSIS":"438.945","MEAN_ANOMALY":"9.7937","CLASSIFICATION_TYPE":"U","OBJECT_NAME":"STARLINK-3768","OBJECT_ID":"2022-041AS","SEMIMAJOR_AXIS":"6816.146","COUNTRY_CODE":"US","MEAN_ELEMENT_THEORY":"SGP4","TLE_LINE1":"1 52301U 22041AS  22176.91667824 -.00720968  00000-0 -17570-1 0  9996","REF_FRAME":"TEME","INCLINATION":"53.2176","SITE":"AFETR","MEAN_MOTION_DOT":"-0.00720968"},{"GP_ID":"206858068","ECCENTRICITY":"0.00038230","MEAN_MOTION_DDOT":"0.0000000000000","APOAPSIS":"352.379","MEAN_ANOMALY":"227.9286","CLASSIFICATION_TYPE":"U","OBJECT_NAME":"STARLINK-3564","OBJECT_ID":"2022-041AT","MEAN_ELEMENT_THEORY":"SGP4","TLE_LINE1":"1 52302U 22041AT  22176.91667824  .00026713  00000-0  19423-3 0  9993","COUNTRY_CODE":"US","SEMIMAJOR_AXIS":"6727.941","REF_FRAME":"TEME","INCLINATION":"53.2150","SITE":"AFETR","MEAN_MOTION_DOT":"0.00026713","FILE":"3502557","DECAY_DATE":null,"ELEMENT_SET_NO":"999","CENTER_NAME":"EARTH","MEAN_MOTION":"15.73183755","OBJECT_TYPE":"PAYLOAD","TLE_LINE2":"2 52302  53.2150  51.9703 0003823   6.3482 227.9286 15.73183755  1309","ARG_OF_PERICENTER":"6.3482","PERIAPSIS":"347.234","REV_AT_EPOCH":"130","BSTAR":"0.00019423000000","NORAD_CAT_ID":"52302","EPOCH":"2022-06-25T22:00:00.999936","EPHEMERIS_TYPE":"0","RA_OF_ASC_NODE":"51.9703","LAUNCH_DATE":"2022-04-21","PERIOD":"91.534","TIME_SYSTEM":"UTC","RCS_SIZE":"LARGE"},{"FILE":"3502557","DECAY_DATE":null,"ELEMENT_SET_NO":"999","MEAN_MOTION":"15.43538987","CENTER_NAME":"EARTH","OBJECT_TYPE":"PAYLOAD","TLE_LINE2":"2 52303  53.2175  54.5775 0001411  50.6225  26.1740 15.43538987  1305","REV_AT_EPOCH":"130","PERIAPSIS":"434.715","ARG_OF_PERICENTER":"50.6225","EPOCH":"2022-06-25T22:00:00.999936","NORAD_CAT_ID":"52303","BSTAR":"-0.01710700000000","EPHEMERIS_TYPE":"0","RA_OF_ASC_NODE":"54.5775","LAUNCH_DATE":"2022-04-21","PERIOD":"93.292","TIME_SYSTEM":"UTC","RCS_SIZE":"LARGE","ECCENTRICITY":"0.00014110","GP_ID":"206857862","MEAN_MOTION_DDOT":"0.0000000000000","APOAPSIS":"436.638","MEAN_ANOMALY":"26.1740","CLASSIFICATION_TYPE":"U","OBJECT_NAME":"STARLINK-3742","OBJECT_ID":"2022-041AU","COUNTRY_CODE":"US","SEMIMAJOR_AXIS":"6813.811","TLE_LINE1":"1 52303U 22041AU  22176.91667824 -.00721093  00000-0 -17107-1 0  9994","MEAN_ELEMENT_THEORY":"SGP4","REF_FRAME":"TEME","INCLINATION":"53.2175","SITE":"AFETR","MEAN_MOTION_DOT":"-0.00721093"},{"MEAN_ANOMALY":"225.5507","APOAPSIS":"352.233","MEAN_MOTION_DDOT":"0.0000000000000","GP_ID":"206858518","ECCENTRICITY":"0.00037520","OBJECT_NAME":"STARLINK-3744","CLASSIFICATION_TYPE":"U","REF_FRAME":"TEME","MEAN_ELEMENT_THEORY":"SGP4","TLE_LINE1":"1 52304U 22041AV  22176.91667824  .00030961  00000-0  22398-3 0  9990","SEMIMAJOR_AXIS":"6727.843","COUNTRY_CODE":"US","OBJECT_ID":"2022-041AV","MEAN_MOTION_DOT":"0.00030961","SITE":"AFETR","INCLINATION":"53.2152","DECAY_DATE":null,"FILE":"3502557","TLE_LINE2":"2 52304  53.2152  51.9696 0003752   9.2816 225.5507 15.73218138  1302","OBJECT_TYPE":"PAYLOAD","CENTER_NAME":"EARTH","MEAN_MOTION":"15.73218138","ELEMENT_SET_NO":"999","EPHEMERIS_TYPE":"0","RA_OF_ASC_NODE":"51.9696","BSTAR":"0.00022398000000","EPOCH":"2022-06-25T22:00:00.999936","NORAD_CAT_ID":"52304","ARG_OF_PERICENTER":"9.2816","PERIAPSIS":"347.184","REV_AT_EPOCH":"130","RCS_SIZE":"LARGE","PERIOD":"91.532","LAUNCH_DATE":"2022-04-21","TIME_SYSTEM":"UTC"},{"APOAPSIS":"435.509","MEAN_ANOMALY":"16.6654","GP_ID":"206858312","ECCENTRICITY":"0.00012350","MEAN_MOTION_DDOT":"0.0000000000000","OBJECT_NAME":"STARLINK-3724","CLASSIFICATION_TYPE":"U","REF_FRAME":"TEME","OBJECT_ID":"2022-041AW","TLE_LINE1":"1 52305U 22041AW  22176.91667824 -.00721202  00000-0 -16912-1 0  9991","MEAN_ELEMENT_THEORY":"SGP4","COUNTRY_CODE":"US","SEMIMAJOR_AXIS":"6812.803","MEAN_MOTION_DOT":"-0.00721202","INCLINATION":"53.2175","SITE":"AFETR","DECAY_DATE":null,"FILE":"3502557","OBJECT_TYPE":"PAYLOAD","TLE_LINE2":"2 52305  53.2175  54.5945 0001235  66.8030  16.6654 15.43881689  1301","ELEMENT_SET_NO":"999","CENTER_NAME":"EARTH","MEAN_MOTION":"15.43881689","BSTAR":"-0.01691200000000","NORAD_CAT_ID":"52305","EPOCH":"2022-06-25T22:00:00.999936","EPHEMERIS_TYPE":"0","RA_OF_ASC_NODE":"54.5945","REV_AT_EPOCH":"130","PERIAPSIS":"433.827","ARG_OF_PERICENTER":"66.8030","PERIOD":"93.271","LAUNCH_DATE":"2022-04-21","TIME_SYSTEM":"UTC","RCS_SIZE":"LARGE"},{"FILE":"3502557","DECAY_DATE":null,"CENTER_NAME":"EARTH","MEAN_MOTION":"15.73280420","ELEMENT_SET_NO":"999","TLE_LINE2":"2 52306  53.2154  51.9678 0003764   6.3343 229.0879 15.73280420  1306","OBJECT_TYPE":"PAYLOAD","PERIAPSIS":"346.999","REV_AT_EPOCH":"130","ARG_OF_PERICENTER":"6.3343","EPHEMERIS_TYPE":"0","RA_OF_ASC_NODE":"51.9678","BSTAR":"-0.00060139000000","EPOCH":"2022-06-25T22:00:00.999936","NORAD_CAT_ID":"52306","RCS_SIZE":"LARGE","LAUNCH_DATE":"2022-04-21","PERIOD":"91.529","TIME_SYSTEM":"UTC","MEAN_MOTION_DDOT":"0.0000000000000","GP_ID":"206858415","ECCENTRICITY":"0.00037640","MEAN_ANOMALY":"229.0879","APOAPSIS":"352.063","CLASSIFICATION_TYPE":"U","OBJECT_NAME":"STARLINK-3747","MEAN_ELEMENT_THEORY":"SGP4","TLE_LINE1":"1 52306U 22041AX  22176.91667824 -.00084511  00000-0 -60139-3 0  9999","SEMIMAJOR_AXIS":"6727.666","COUNTRY_CODE":"US","OBJECT_ID":"2022-041AX","REF_FRAME":"TEME","SITE":"AFETR","INCLINATION":"53.2154","MEAN_MOTION_DOT":"-0.00084511"}];
